start=new Date('2023-06-19T00:00:00.000Z').valueOf();
sats=[{"SEMIMAJOR_AXIS":"6925.466","MEAN_ELEMENT_THEORY":"SGP4","PERIAPSIS":"546.430","LAUNCH_DATE":"2020-10-06","ECCENTRICITY":"0.00013020","MEAN_MOTION_DDOT":"0.0000000000000","ELEMENT_SET_NO":"999","OBJECT_NAME":"STARLINK-1741","TIME_SYSTEM":"UTC","APOAPSIS":"548.233","GP_ID":"234242291","EPOCH":"2023-06-18T15:32:54.450816","NORAD_CAT_ID":"46567","SITE":"AFETR","PERIOD":"95.595","BSTAR":"0.00089409000000","TLE_LINE1":"1 46567U 20070AM  23169.64785244  .00013047  00000-0  89409-3 0  9996","DECAY_DATE":null,"CLASSIFICATION_TYPE":"U","REV_AT_EPOCH":"14981","MEAN_MOTION":"15.06361605","MEAN_MOTION_DOT":"0.00013047","EPHEMERIS_TYPE":"0","OBJECT_ID":"2020-070AM","FILE":"3936745","RCS_SIZE":"LARGE","CENTER_NAME":"EARTH","REF_FRAME":"TEME","COUNTRY_CODE":"US","OBJECT_TYPE":"PAYLOAD","MEAN_ANOMALY":"274.6669","RA_OF_ASC_NODE":"303.5356","INCLINATION":"53.0543","TLE_LINE2":"2 46567  53.0543 303.5356 0001302  85.4469 274.6669 15.06361605149813","ARG_OF_PERICENTER":"85.4469"},{"TLE_LINE1":"1 46569U 20070AP  23169.66259436  .00010795  00000-0  74329-3 0  9991","BSTAR":"0.00074329000000","PERIOD":"95.595","REV_AT_EPOCH":"14981","DECAY_DATE":null,"CLASSIFICATION_TYPE":"U","NORAD_CAT_ID":"46569","GP_ID":"234243040","EPOCH":"2023-06-18T15:54:08.152704","SITE":"AFETR","OBJECT_TYPE":"PAYLOAD","MEAN_ANOMALY":"292.7005","RA_OF_ASC_NODE":"303.4653","COUNTRY_CODE":"US","REF_FRAME":"TEME","CENTER_NAME":"EARTH","ARG_OF_PERICENTER":"67.4031","TLE_LINE2":"2 46569  53.0555 303.4653 0000437  67.4031 292.7005 15.06357671149813","INCLINATION":"53.0555","MEAN_MOTION_DOT":"0.00010795","MEAN_MOTION":"15.06357671","RCS_SIZE":"LARGE","FILE":"3936745","EPHEMERIS_TYPE":"0","OBJECT_ID":"2020-070AP","ECCENTRICITY":"0.00004370","PERIAPSIS":"547.041","LAUNCH_DATE":"2020-10-06","MEAN_ELEMENT_THEORY":"SGP4","SEMIMAJOR_AXIS":"6925.478","APOAPSIS":"547.646","TIME_SYSTEM":"UTC","OBJECT_NAME":"STARLINK-1747","MEAN_MOTION_DDOT":"0.0000000000000","ELEMENT_SET_NO":"999"},{"MEAN_ELEMENT_THEORY":"SGP4","SEMIMAJOR_AXIS":"6872.763","PERIAPSIS":"493.145","LAUNCH_DATE":"2020-10-06","ECCENTRICITY":"0.00021580","OBJECT_NAME":"STARLINK-1748","ELEMENT_SET_NO":"999","MEAN_MOTION_DDOT":"0.0000000000000","TIME_SYSTEM":"UTC","APOAPSIS":"496.111","EPOCH":"2023-06-18T11:10:55.089696","GP_ID":"234207325","NORAD_CAT_ID":"46570","SITE":"AFETR","BSTAR":"0.00049913000000","TLE_LINE1":"1 46570U 20070AQ  23169.46591539  .00011830  00000-0  49913-3 0  9996","PERIOD":"94.505","REV_AT_EPOCH":"15010","CLASSIFICATION_TYPE":"U","DECAY_DATE":null,"MEAN_MOTION_DOT":"0.00011830","MEAN_MOTION":"15.23721856","FILE":"3936420","RCS_SIZE":"LARGE","EPHEMERIS_TYPE":"0","OBJECT_ID":"2020-070AQ","COUNTRY_CODE":"US","OBJECT_TYPE":"PAYLOAD","RA_OF_ASC_NODE":"281.5426","MEAN_ANOMALY":"325.7106","CENTER_NAME":"EARTH","REF_FRAME":"TEME","TLE_LINE2":"2 46570  53.0249 281.5426 0002158  34.4029 325.7106 15.23721856150104","ARG_OF_PERICENTER":"34.4029","INCLINATION":"53.0249"},{"MEAN_MOTION_DDOT":"0.0000000000000","ELEMENT_SET_NO":"999","OBJECT_NAME":"STARLINK-1531","TIME_SYSTEM":"UTC","APOAPSIS":"548.324","SEMIMAJOR_AXIS":"6925.469","MEAN_ELEMENT_THEORY":"SGP4","PERIAPSIS":"546.344","LAUNCH_DATE":"2020-10-06","ECCENTRICITY":"0.00014300","EPHEMERIS_TYPE":"0","OBJECT_ID":"2020-070AS","FILE":"3936745","RCS_SIZE":"LARGE","MEAN_MOTION":"15.06360679","MEAN_MOTION_DOT":"0.00022091","INCLINATION":"53.0543","TLE_LINE2":"2 46572  53.0543 322.6910 0001430  90.7712 269.3441 15.06360679149559","ARG_OF_PERICENTER":"90.7712","CENTER_NAME":"EARTH","REF_FRAME":"TEME","COUNTRY_CODE":"US","RA_OF_ASC_NODE":"322.6910","OBJECT_TYPE":"PAYLOAD","MEAN_ANOMALY":"269.3441","SITE":"AFETR","GP_ID":"234242041","EPOCH":"2023-06-18T19:59:35.856096","NORAD_CAT_ID":"46572","CLASSIFICATION_TYPE":"U","DECAY_DATE":null,"REV_AT_EPOCH":"14955","PERIOD":"95.595","BSTAR":"0.00149890000000","TLE_LINE1":"1 46572U 20070AS  23169.83305389  .00022091  00000-0  14989-2 0  9990"},{"PERIOD":"90.357","BSTAR":"0.00119270000000","TLE_LINE1":"1 46573U 20070AT  23169.61568513  .00441975  87993-4  11927-2 0  9992","CLASSIFICATION_TYPE":"U","DECAY_DATE":null,"REV_AT_EPOCH":"15086","GP_ID":"234188288","EPOCH":"2023-06-18T14:46:35.195232","NORAD_CAT_ID":"46573","SITE":"AFETR","CENTER_NAME":"EARTH","REF_FRAME":"TEME","COUNTRY_CODE":"US","MEAN_ANOMALY":"114.8983","OBJECT_TYPE":"PAYLOAD","RA_OF_ASC_NODE":"227.7586","INCLINATION":"53.0319","TLE_LINE2":"2 46573  53.0319 227.7586 0011200   8.6332 114.8983 15.93680676150866","ARG_OF_PERICENTER":"8.6332","MEAN_MOTION":"15.93680676","MEAN_MOTION_DOT":"0.00441975","OBJECT_ID":"2020-070AT","EPHEMERIS_TYPE":"0","FILE":"3936415","RCS_SIZE":"LARGE","PERIAPSIS":"284.525","LAUNCH_DATE":"2020-10-06","ECCENTRICITY":"0.00112000","SEMIMAJOR_AXIS":"6670.130","MEAN_ELEMENT_THEORY":"SGP4","TIME_SYSTEM":"UTC","APOAPSIS":"299.466","MEAN_MOTION_DDOT":"0.0000879930000","ELEMENT_SET_NO":"999","OBJECT_NAME":"STARLINK-1650"},{"MEAN_MOTION":"15.06361974","MEAN_MOTION_DOT":"0.00022625","OBJECT_ID":"2020-070AU","EPHEMERIS_TYPE":"0","RCS_SIZE":"LARGE","FILE":"3936745","REF_FRAME":"TEME","CENTER_NAME":"EARTH","OBJECT_TYPE":"PAYLOAD","MEAN_ANOMALY":"277.9011","RA_OF_ASC_NODE":"307.8671","COUNTRY_CODE":"US","INCLINATION":"53.0553","TLE_LINE2":"2 46574  53.0553 307.8671 0001402  82.2138 277.9011 15.06361974149768","ARG_OF_PERICENTER":"82.2138","NORAD_CAT_ID":"46574","GP_ID":"234243540","EPOCH":"2023-06-18T19:07:12.305280","SITE":"AFETR","PERIOD":"95.595","TLE_LINE1":"1 46574U 20070AU  23169.79667020  .00022625  00000-0  15345-2 0  9990","BSTAR":"0.00153450000000","DECAY_DATE":null,"CLASSIFICATION_TYPE":"U","REV_AT_EPOCH":"14976","MEAN_MOTION_DDOT":"0.0000000000000","ELEMENT_SET_NO":"999","OBJECT_NAME":"STARLINK-1660","APOAPSIS":"548.301","TIME_SYSTEM":"UTC","SEMIMAJOR_AXIS":"6925.465","MEAN_ELEMENT_THEORY":"SGP4","ECCENTRICITY":"0.00014020","LAUNCH_DATE":"2020-10-06","PERIAPSIS":"546.359"},{"ECCENTRICITY":"0.00023020","PERIAPSIS":"545.641","LAUNCH_DATE":"2020-10-06","SEMIMAJOR_AXIS":"6925.371","MEAN_ELEMENT_THEORY":"SGP4","APOAPSIS":"548.830","TIME_SYSTEM":"UTC","MEAN_MOTION_DDOT":"0.0000000000000","ELEMENT_SET_NO":"999","OBJECT_NAME":"STARLINK-1675","PERIOD":"95.593","TLE_LINE1":"1 46575U 20070AV  23169.58703908 -.00000583  00000-0 -20230-4 0  9996","BSTAR":"-0.00002023000000","CLASSIFICATION_TYPE":"U","DECAY_DATE":null,"REV_AT_EPOCH":"15007","NORAD_CAT_ID":"46575","EPOCH":"2023-06-18T14:05:20.176512","GP_ID":"234243284","SITE":"AFETR","REF_FRAME":"TEME","CENTER_NAME":"EARTH","RA_OF_ASC_NODE":"283.8049","OBJECT_TYPE":"PAYLOAD","MEAN_ANOMALY":"270.3753","COUNTRY_CODE":"US","INCLINATION":"53.0547","TLE_LINE2":"2 46575  53.0547 283.8049 0002302  89.7500 270.3753 15.06392833150073","ARG_OF_PERICENTER":"89.7500","MEAN_MOTION":"15.06392833","MEAN_MOTION_DOT":"-0.00000583","EPHEMERIS_TYPE":"0","OBJECT_ID":"2020-070AV","RCS_SIZE":"LARGE","FILE":"3936745"},{"SEMIMAJOR_AXIS":"6925.463","MEAN_ELEMENT_THEORY":"SGP4","PERIAPSIS":"546.427","LAUNCH_DATE":"2020-10-06","ECCENTRICITY":"0.00013010","ELEMENT_SET_NO":"999","MEAN_MOTION_DDOT":"0.0000000000000","OBJECT_NAME":"STARLINK-1677","TIME_SYSTEM":"UTC","APOAPSIS":"548.229","GP_ID":"234242541","EPOCH":"2023-06-18T18:56:36.134304","NORAD_CAT_ID":"46576","SITE":"AFETR","PERIOD":"95.595","BSTAR":"0.00144320000000","TLE_LINE1":"1 46576U 20070AW  23169.78930711  .00021259  00000-0  14432-2 0  9999","DECAY_DATE":null,"CLASSIFICATION_TYPE":"U","REV_AT_EPOCH":"14976","MEAN_MOTION":"15.06362765","MEAN_MOTION_DOT":"0.00021259","EPHEMERIS_TYPE":"0","OBJECT_ID":"2020-070AW","FILE":"3936745","RCS_SIZE":"LARGE","CENTER_NAME":"EARTH","REF_FRAME":"TEME","COUNTRY_CODE":"US","MEAN_ANOMALY":"275.2929","OBJECT_TYPE":"PAYLOAD","RA_OF_ASC_NODE":"307.9010","INCLINATION":"53.0541","ARG_OF_PERICENTER":"84.8208","TLE_LINE2":"2 46576  53.0541 307.9010 0001301  84.8208 275.2929 15.06362765149767"},{"RCS_SIZE":"LARGE","FILE":"3936745","OBJECT_ID":"2020-070AX","EPHEMERIS_TYPE":"0","MEAN_MOTION_DOT":"0.00021526","MEAN_MOTION":"15.06375359","ARG_OF_PERICENTER":"94.7927","TLE_LINE2":"2 46577  53.0549 308.0693 0001335  94.7927 265.3215 15.06375359149750","INCLINATION":"53.0549","OBJECT_TYPE":"PAYLOAD","RA_OF_ASC_NODE":"308.0693","MEAN_ANOMALY":"265.3215","COUNTRY_CODE":"US","REF_FRAME":"TEME","CENTER_NAME":"EARTH","SITE":"AFETR","NORAD_CAT_ID":"46577","GP_ID":"234242292","EPOCH":"2023-06-18T18:03:32.107680","REV_AT_EPOCH":"14975","CLASSIFICATION_TYPE":"U","DECAY_DATE":null,"TLE_LINE1":"1 46577U 20070AX  23169.75245495  .00021526  00000-0  14606-2 0  9995","BSTAR":"0.00146060000000","PERIOD":"95.594","OBJECT_NAME":"STARLINK-1682","MEAN_MOTION_DDOT":"0.0000000000000","ELEMENT_SET_NO":"999","APOAPSIS":"548.214","TIME_SYSTEM":"UTC","MEAN_ELEMENT_THEORY":"SGP4","SEMIMAJOR_AXIS":"6925.424","ECCENTRICITY":"0.00013350","PERIAPSIS":"546.365","LAUNCH_DATE":"2020-10-06"},{"PERIOD":"95.592","TLE_LINE1":"1 46578U 20070AY  23169.73356268  .00011334  00000-0  77854-3 0  9996","BSTAR":"0.00077854000000","CLASSIFICATION_TYPE":"U","DECAY_DATE":null,"REV_AT_EPOCH":"14996","NORAD_CAT_ID":"46578","EPOCH":"2023-06-18T17:36:19.815552","GP_ID":"234243041","SITE":"AFETR","REF_FRAME":"TEME","CENTER_NAME":"EARTH","MEAN_ANOMALY":"250.9566","OBJECT_TYPE":"PAYLOAD","RA_OF_ASC_NODE":"293.1977","COUNTRY_CODE":"US","INCLINATION":"53.0538","ARG_OF_PERICENTER":"109.1536","TLE_LINE2":"2 46578  53.0538 293.1977 0001042 109.1536 250.9566 15.06400191149965","MEAN_MOTION":"15.06400191","MEAN_MOTION_DOT":"0.00011334","OBJECT_ID":"2020-070AY","EPHEMERIS_TYPE":"0","RCS_SIZE":"LARGE","FILE":"3936745","ECCENTRICITY":"0.00010420","LAUNCH_DATE":"2020-10-06","PERIAPSIS":"546.491","SEMIMAJOR_AXIS":"6925.348","MEAN_ELEMENT_THEORY":"SGP4","APOAPSIS":"547.935","TIME_SYSTEM":"UTC","ELEMENT_SET_NO":"999","MEAN_MOTION_DDOT":"0.0000000000000","OBJECT_NAME":"STARLINK-1683"}];
